{
  "type": "FeatureCollection",
  "features": [
    {
      "type": "Feature",
      "properties": {
        "norad_id": 31307,
        "name": "GALAXY 17 (G-17)",
        "group": "intelsat",
        "lat": 1.982040542789202,
        "lon": 135.27536795003996,
        "alt_km": 35792.53902681275,
        "timestamp": "2025-12-04T09:47:37.190127+00:00",
        "meta_object_name": "GALAXY 17 (G-17)",
        "meta_object_id": "2007-016B",
        "meta_epoch": "2025-12-03T13:21:08.037792",
        "meta_mean_motion": 1.0027041,
        "meta_eccentricity": 0.00061106,
        "meta_inclination": 2.475,
        "meta_ra_of_asc_node": 82.3897,
        "meta_arg_of_pericenter": 156.8173,
        "meta_mean_anomaly": 308.7234,
        "meta_ephemeris_type": 0,
        "meta_classification_type": "U",
        "meta_norad_cat_id": 31307,
        "meta_element_set_no": 999,
        "meta_rev_at_epoch": 6784,
        "meta_bstar": 0,
        "meta_mean_motion_dot": -1.89e-06,
        "meta_mean_motion_ddot": 0,
        "tle_line1": "1 31307U 07016B   25337.55634303 -.00000189  00000+0  00000+0 0  9994",
        "tle_line2": "2 31307   2.4750  82.3897 0006110 156.8173 308.7234  1.00270410 67847"
      },
      "geometry": {
        "type": "Point",
        "coordinates": [
          135.27536795003996,
          1.982040542789202
        ]
      }
    },
    {
      "type": "Feature",
      "properties": {
        "norad_id": 31862,
        "name": "DIRECTV 10",
        "group": "intelsat",
        "lat": -0.005535286829165437,
        "lon": 117.57032114789408,
        "alt_km": 35785.73153099926,
        "timestamp": "2025-12-04T09:47:37.190138+00:00",
        "meta_object_name": "DIRECTV 10",
        "meta_object_id": "2007-032A",
        "meta_epoch": "2025-12-03T13:16:01.028352",
        "meta_mean_motion": 1.00272155,
        "meta_eccentricity": 3.391e-05,
        "meta_inclination": 0.0122,
        "meta_ra_of_asc_node": 175.5522,
        "meta_arg_of_pericenter": 21.3057,
        "meta_mean_anomaly": 331.993,
        "meta_ephemeris_type": 0,
        "meta_classification_type": "U",
        "meta_norad_cat_id": 31862,
        "meta_element_set_no": 999,
        "meta_rev_at_epoch": 4363,
        "meta_bstar": 0,
        "meta_mean_motion_dot": -8.5e-07,
        "meta_mean_motion_ddot": 0,
        "tle_line1": "1 31862U 07032A   25337.55278968 -.00000085  00000+0  00000+0 0  9994",
        "tle_line2": "2 31862   0.0122 175.5522 0000339  21.3057 331.9930  1.00272155 43634"
      },
      "geometry": {
        "type": "Point",
        "coordinates": [
          117.57032114789408,
          -0.005535286829165437
        ]
      }
    },
    {
      "type": "Feature",
      "properties": {
        "norad_id": 32253,
        "name": "INTELSAT 11 (IS-11)",
        "group": "intelsat",
        "lat": 2.0408225491212915,
        "lon": 122.6184027363625,
        "alt_km": 36152.40075535696,
        "timestamp": "2025-12-04T09:47:37.190150+00:00",
        "meta_object_name": "INTELSAT 11 (IS-11)",
        "meta_object_id": "2007-044B",
        "meta_epoch": "2025-12-03T19:30:38.707200",
        "meta_mean_motion": 0.99047231,
        "meta_eccentricity": 0.00092849,
        "meta_inclination": 3.0552,
        "meta_ra_of_asc_node": 81.0766,
        "meta_arg_of_pericenter": 161.357,
        "meta_mean_anomaly": 28.1289,
        "meta_ephemeris_type": 0,
        "meta_classification_type": "U",
        "meta_norad_cat_id": 32253,
        "meta_element_set_no": 999,
        "meta_rev_at_epoch": 6651,
        "meta_bstar": 0,
        "meta_mean_motion_dot": 1.4e-07,
        "meta_mean_motion_ddot": 0,
        "tle_line1": "1 32253U 07044B   25337.81294800  .00000014  00000+0  00000+0 0  9995",
        "tle_line2": "2 32253   3.0552  81.0766 0009284 161.3570  28.1289  0.99047231 66519"
      },
      "geometry": {
        "type": "Point",
        "coordinates": [
          122.6184027363625,
          2.0408225491212915
        ]
      }
    },
    {
      "type": "Feature",
      "properties": {
        "norad_id": 32388,
        "name": "HORIZONS-2",
        "group": "intelsat",
        "lat": 1.8775148224664986,
        "lon": 146.52034440493824,
        "alt_km": 35795.58025695158,
        "timestamp": "2025-12-04T09:47:37.190162+00:00",
        "meta_object_name": "HORIZONS-2",
        "meta_object_id": "2007-063B",
        "meta_epoch": "2025-12-03T13:24:15.239808",
        "meta_mean_motion": 1.0027201,
        "meta_eccentricity": 0.000498,
        "meta_inclination": 2.0959,
        "meta_ra_of_asc_node": 83.0611,
        "meta_arg_of_pericenter": 181.0664,
        "meta_mean_anomaly": 295.7978,
        "meta_ephemeris_type": 0,
        "meta_classification_type": "U",
        "meta_norad_cat_id": 32388,
        "meta_element_set_no": 999,
        "meta_rev_at_epoch": 6585,
        "meta_bstar": 0,
        "meta_mean_motion_dot": -2.36e-06,
        "meta_mean_motion_ddot": 0,
        "tle_line1": "1 32388U 07063B   25337.55850972 -.00000236  00000+0  00000+0 0  9991",
        "tle_line2": "2 32388   2.0959  83.0611 0004980 181.0664 295.7978  1.00272010 65851"
      },
      "geometry": {
        "type": "Point",
        "coordinates": [
          146.52034440493824,
          1.8775148224664986
        ]
      }
    },
    {
      "type": "Feature",
      "properties": {
        "norad_id": 32729,
        "name": "DIRECTV 11",
        "group": "intelsat",
        "lat": -0.0025096487767453345,
        "lon": 121.17164908389383,
        "alt_km": 35785.741038994,
        "timestamp": "2025-12-04T09:47:37.190173+00:00",
        "meta_object_name": "DIRECTV 11",
        "meta_object_id": "2008-013A",
        "meta_epoch": "2025-12-03T13:17:00.932928",
        "meta_mean_motion": 1.00271645,
        "meta_eccentricity": 5.575e-05,
        "meta_inclination": 0.0189,
        "meta_ra_of_asc_node": 148.0533,
        "meta_arg_of_pericenter": 52.939,
        "meta_mean_anomaly": 331.7143,
        "meta_ephemeris_type": 0,
        "meta_classification_type": "U",
        "meta_norad_cat_id": 32729,
        "meta_element_set_no": 999,
        "meta_rev_at_epoch": 4363,
        "meta_bstar": 0,
        "meta_mean_motion_dot": -1.08e-06,
        "meta_mean_motion_ddot": 0,
        "tle_line1": "1 32729U 08013A   25337.55348302 -.00000108  00000+0  00000+0 0  9993",
        "tle_line2": "2 32729   0.0189 148.0533 0000557  52.9390 331.7143  1.00271645 43636"
      },
      "geometry": {
        "type": "Point",
        "coordinates": [
          121.17164908389383,
          -0.0025096487767453345
        ]
      }
    },
    {
      "type": "Feature",
      "properties": {
        "norad_id": 32951,
        "name": "GALAXY 18 (G-18)",
        "group": "intelsat",
        "lat": 0.03552823435878189,
        "lon": 97.36400082332119,
        "alt_km": 35799.31005572723,
        "timestamp": "2025-12-04T09:47:37.190185+00:00",
        "meta_object_name": "GALAXY 18 (G-18)",
        "meta_object_id": "2008-024A",
        "meta_epoch": "2025-12-03T13:10:16.578336",
        "meta_mean_motion": 1.00272732,
        "meta_eccentricity": 0.00033926,
        "meta_inclination": 0.0183,
        "meta_ra_of_asc_node": 7.1741,
        "meta_arg_of_pericenter": 250.7376,
        "meta_mean_anomaly": 249.3008,
        "meta_ephemeris_type": 0,
        "meta_classification_type": "U",
        "meta_norad_cat_id": 32951,
        "meta_element_set_no": 999,
        "meta_rev_at_epoch": 4389,
        "meta_bstar": 0,
        "meta_mean_motion_dot": 4.3e-07,
        "meta_mean_motion_ddot": 0,
        "tle_line1": "1 32951U 08024A   25337.54880299  .00000043  00000+0  00000+0 0  9994",
        "tle_line2": "2 32951   0.0183   7.1741 0003392 250.7376 249.3008  1.00272732 43895"
      },
      "geometry": {
        "type": "Point",
        "coordinates": [
          97.36400082332119,
          0.03552823435878189
        ]
      }
    },
    {
      "type": "Feature",
      "properties": {
        "norad_id": 33153,
        "name": "INTELSAT 25 (IS-25)",
        "group": "intelsat",
        "lat": 2.100027132016886,
        "lon": -171.1691635046808,
        "alt_km": 35778.77022737733,
        "timestamp": "2025-12-04T09:47:37.190197+00:00",
        "meta_object_name": "INTELSAT 25 (IS-25)",
        "meta_object_id": "2008-034A",
        "meta_epoch": "2025-12-03T17:01:49.924704",
        "meta_mean_motion": 1.00271325,
        "meta_eccentricity": 0.00053616,
        "meta_inclination": 2.2026,
        "meta_ra_of_asc_node": 82.7502,
        "meta_arg_of_pericenter": 177.6461,
        "meta_mean_anomaly": 36.3651,
        "meta_ephemeris_type": 0,
        "meta_classification_type": "U",
        "meta_norad_cat_id": 33153,
        "meta_element_set_no": 999,
        "meta_rev_at_epoch": 6373,
        "meta_bstar": 0,
        "meta_mean_motion_dot": -2.07e-06,
        "meta_mean_motion_ddot": 0,
        "tle_line1": "1 33153U 08034A   25337.70960561 -.00000207  00000+0  00000+0 0  9992",
        "tle_line2": "2 33153   2.2026  82.7502 0005361 177.6461  36.3651  1.00271325 63734"
      },
      "geometry": {
        "type": "Point",
        "coordinates": [
          -171.1691635046808,
          2.100027132016886
        ]
      }
    }
  ]
}